H1 CPF 01  gfz 2022 05 21 12  6412 tandemx   
H2 1003001  6202 36605    2022 05 21 12 59 42 2022 05 26 00 00 42   120 1 1  0 0 0
H9
10 0 59721  76302.000000  0    2539383.089  -3776978.730   5160891.649
10 0 59721  76422.000000  0    1965989.736  -3304230.455   5705265.208
10 0 59721  76542.000000  0    1367132.158  -2763514.355   6149288.447
10 0 59721  76662.000000  0     754387.512  -2163946.225   6485189.077
10 0 59721  76782.000000  0     139396.471  -1515863.655   6707094.052
10 0 59721  76902.000000  0    -466357.955   -830645.302   6811126.417
10 0 59721  77022.000000  0   -1051763.800   -120509.281   6795469.049
10 0 59721  77142.000000  0   -1606283.217    601704.695   6660394.210
10 0 59721  77262.000000  0   -2120141.643   1322766.974   6408259.015
10 0 59721  77382.000000  0   -2584500.395   2029299.403   6043466.864
10 0 59721  77502.000000  0   -2991609.831   2708023.276   5572395.487
10 0 59721  77622.000000  0   -3334941.356   3346010.464   5003291.948
10 0 59721  77742.000000  0   -3609296.141   3930932.544   4346134.225
10 0 59721  77862.000000  0   -3810887.454   4451304.041   3612461.198
10 0 59721  77982.000000  0   -3937394.743   4896714.218   2815172.505
10 0 59721  78102.000000  0   -3987988.121   5258041.689   1968300.627
10 0 59721  78222.000000  0   -3963321.501   5527645.583   1086760.328
10 0 59721  78342.000000  0   -3865496.204   5699529.851    186081.071
10 0 59721  78462.000000  0   -3697995.638   5769477.260   -717874.641
10 0 59721  78582.000000  0   -3465590.053   5735146.679  -1609201.345
10 0 59721  78702.000000  0   -3174215.061   5596131.046  -2472240.477
10 0 59721  78822.000000  0   -2830826.018   5353975.965  -3291861.656
10 0 59721  78942.000000  0   -2443236.047   5012159.293  -4053731.079
10 0 59721  79062.000000  0   -2019940.059   4576032.203  -4744561.791
10 0 59721  79182.000000  0   -1569929.446   4052725.019  -5352339.506
10 0 59721  79302.000000  0   -1102503.108   3451022.345  -5866523.608
10 0 59721  79422.000000  0    -627077.109   2781207.726  -6278221.278
10 0 59721  79542.000000  0    -152997.198   2054881.490  -6580329.843
10 0 59721  79662.000000  0     310640.787   1284757.993  -6767647.432
10 0 59721  79782.000000  0     755160.522    484444.453  -6836953.849
10 0 59721  79902.000000  0    1172463.880   -331795.414  -6787060.078
10 0 59721  80022.000000  0    1555174.511  -1149290.680  -6618825.285
10 0 59721  80142.000000  0    1896764.575  -1953219.624  -6335142.718
10 0 59721  80262.000000  0    2191664.604  -2728871.299  -5940895.943
10 0 59721  80382.000000  0    2435354.182  -3461910.136  -5442885.265
10 0 59721  80502.000000  0    2624432.940  -4138641.640  -4849721.656
10 0 59721  80622.000000  0    2756668.663  -4746269.517  -4171686.959
10 0 59721  80742.000000  0    2831022.294  -5273140.866  -3420566.729
10 0 59721  80862.000000  0    2847649.428  -5708978.142  -2609454.906
10 0 59721  80982.000000  0    2807877.718  -6045089.225  -1752530.349
10 0 59721  81102.000000  0    2714160.819  -6274551.068   -864810.430
10 0 59721  81222.000000  0    2570007.447  -6392361.360     38116.031
10 0 59721  81342.000000  0    2379887.659  -6395551.900    940368.837
10 0 59721  81462.000000  0    2149119.838  -6283263.181   1826063.244
10 0 59721  81582.000000  0    1883739.632  -6056775.915   2679600.137
10 0 59721  81702.000000  0    1590354.642  -5719497.782   3485948.988
10 0 59721  81822.000000  0    1275989.148  -5276908.052   4230918.413
10 0 59721  81942.000000  0     947922.736  -4736461.822   4901409.013
10 0 59721  82062.000000  0     613526.957  -4107457.009   5485645.502
10 0 59721  82182.000000  0     280102.924  -3400864.204   5973382.646
10 0 59721  82302.000000  0     -45274.553  -2629125.330   6356079.656
10 0 59721  82422.000000  0    -355904.162  -1805928.408   6627042.585
10 0 59721  82542.000000  0    -645593.324   -945961.935   6781535.482
10 0 59721  82662.000000  0    -908779.849    -64651.116   6816859.383
10 0 59721  82782.000000  0   -1140637.808    822119.766   6732396.853
10 0 59721  82902.000000  0   -1337165.600   1698293.388   6529621.733
10 0 59721  83022.000000  0   -1495254.923   2547929.474   6212075.046
10 0 59721  83142.000000  0   -1612740.265   3355495.079   5785306.997
10 0 59721  83262.000000  0   -1688427.623   4106150.319   5256785.026
10 0 59721  83382.000000  0   -1722101.883   4786025.331   4635770.065
10 0 59721  83502.000000  0   -1714513.481   5382483.902   3933159.470
10 0 59721  83622.000000  0   -1667343.189   5884366.842   3161299.113
10 0 59721  83742.000000  0   -1583147.646   6282209.847   2333767.417
10 0 59721  83862.000000  0   -1465285.102   6568431.573   1465134.319
10 0 59721  83982.000000  0   -1317821.998   6737485.988    570699.436
10 0 59721  84102.000000  0   -1145424.208   6785974.625   -333784.042
10 0 59721  84222.000000  0    -953235.646   6712718.036  -1232395.602
10 0 59721  84342.000000  0    -746746.022   6518780.045  -2109339.201
10 0 59721  84462.000000  0    -531653.212   6207443.910  -2949228.688
10 0 59721  84582.000000  0    -313723.770   5784145.975  -3737360.897
10 0 59721  84702.000000  0     -98654.087   5256369.501  -4459973.586
10 0 59721  84822.000000  0     108064.198   4633500.044  -5104483.371
10 0 59721  84942.000000  0     301271.645   3926647.092  -5659698.851
10 0 59721  85062.000000  0     476258.308   3148435.832  -6116006.502
10 0 59721  85182.000000  0     628867.910   2312774.046  -6465526.057
10 0 59721  85302.000000  0     755587.597   1434600.708  -6702234.616
10 0 59721  85422.000000  0     853621.998    529620.214  -6822060.262
10 0 59721  85542.000000  0     920950.059   -385974.447  -6822944.658
10 0 59721  85662.000000  0     956364.164  -1295785.856  -6704873.861
10 0 59721  85782.000000  0     959490.933  -2183497.751  -6469876.764
10 0 59721  85902.000000  0     930794.244  -3033159.031  -6121995.028
10 0 59721  86022.000000  0     871559.716  -3829466.669  -5667223.345
10 0 59721  86142.000000  0     783860.156  -4558040.767  -5113415.251
10 0 59721  86262.000000  0     670504.217  -5205685.654  -4470158.722
10 0 59721  86382.000000  0     534967.381  -5760635.316  -3748621.869
10 0 59722    102.000000  0     381306.745  -6212776.862  -2961367.936
10 0 59722    222.000000  0     214061.446  -6553846.306  -2122143.257
10 0 59722    342.000000  0      38140.776  -6777593.272  -1245640.145
10 0 59722    462.000000  0    -141297.955  -6879907.886   -347237.697
10 0 59722    582.000000  0    -318978.647  -6858905.796    557272.865
10 0 59722    702.000000  0    -489639.533  -6714969.876   1451972.372
10 0 59722    822.000000  0    -648166.881  -6450747.170   2321102.843
10 0 59722    942.000000  0    -789725.701  -6071099.299   3149354.874
10 0 59722   1062.000000  0    -909882.834  -5583006.588   3922145.987
10 0 59722   1182.000000  0   -1004721.044  -4995430.711   4625881.368
10 0 59722   1302.000000  0   -1070941.063  -4319140.904   5248194.633
10 0 59722   1422.000000  0   -1105948.130  -3566507.524   5778165.057
10 0 59722   1542.000000  0   -1107922.434  -2751265.354   6206506.964
10 0 59722   1662.000000  0   -1075870.482  -1888254.520   6525725.347
10 0 59722   1782.000000  0   -1009657.595   -993147.091   6730240.222
10 0 59722   1902.000000  0    -910022.012    -82160.284   6816479.593
10 0 59722   2022.000000  0    -778569.592    828238.015   6782937.836
10 0 59722   2142.000000  0    -617747.760   1721626.609   6630200.766
10 0 59722   2262.000000  0    -430799.806   2581926.900   6360935.912
10 0 59722   2382.000000  0    -221700.636   3393692.243   5979848.734
10 0 59722   2502.000000  0       4924.561   4142387.209   5493605.313
10 0 59722   2622.000000  0     243897.969   4814651.605   4910721.293
10 0 59722   2742.000000  0     489602.037   5398546.058   4241419.248
10 0 59722   2862.000000  0     736104.172   5883771.667   3497451.663
10 0 59722   2982.000000  0     977290.967   6261860.203   2691901.104
10 0 59722   3102.000000  0    1207012.145   6526337.441   1838947.791
10 0 59722   3222.000000  0    1419225.792   6672839.578    953613.748
10 0 59722   3342.000000  0    1608143.935   6699190.511     51491.356
10 0 59722   3462.000000  0    1768374.321   6605434.055   -851539.387
10 0 59722   3582.000000  0    1895054.099   6393821.993  -1739598.435
10 0 59722   3702.000000  0    1983972.845   6068758.845  -2597092.194
10 0 59722   3822.000000  0    2031681.744   5636704.269  -3408993.460
10 0 59722   3942.000000  0    2035586.192   5106035.282  -4161108.641
10 0 59722   4062.000000  0    1994019.484   4486871.806  -4840325.531
10 0 59722   4182.000000  0    1906295.913   3790872.284  -5434836.753
10 0 59722   4302.000000  0    1772743.434   3031005.342  -5934336.750
10 0 59722   4422.000000  0    1594714.527   2221301.393  -6330190.498
10 0 59722   4542.000000  0    1374575.836   1376590.503  -6615570.518
10 0 59722   4662.000000  0    1115678.108    512232.293  -6785563.934
10 0 59722   4782.000000  0     822305.214   -356159.810  -6837248.619
10 0 59722   4902.000000  0     499603.595  -1212995.251  -6769737.029
10 0 59722   5022.000000  0     153493.901  -2042978.640  -6584188.181
10 0 59722   5142.000000  0    -209433.921  -2831374.640  -6283790.916
10 0 59722   5262.000000  0    -582042.572  -3564265.918  -5873716.535
10 0 59722   5382.000000  0    -956782.945  -4228796.839  -5361038.104
10 0 59722   5502.000000  0   -1325841.794  -4813400.510  -4754620.377
10 0 59722   5622.000000  0   -1681300.107  -5308006.162  -4064978.196
10 0 59722   5742.000000  0   -2015298.923  -5704221.382  -3304104.119
10 0 59722   5862.000000  0   -2320208.829  -5995484.952  -2485267.623
10 0 59722   5982.000000  0   -2588799.656  -6177187.184  -1622788.569
10 0 59722   6102.000000  0   -2814406.466  -6246754.434   -731787.404
10 0 59722   6222.000000  0   -2991087.489  -6203693.710    172083.983
10 0 59722   6342.000000  0   -3113769.197  -6049594.820   1072924.134
99
